IRIDIUM 57              
1 25273U 98019B   24124.52559545  .00000460  00000+0  15415-3 0  9997
2 25273  86.3928 316.8428 0002173  88.6765 271.4680 14.35179166366222
IRIDIUM 63              
1 25286U 98021B   24123.45123901  .00000699  00000+0  23548-3 0  9998
2 25286  86.3976 254.1636 0002193  98.7680 261.3765 14.35722074364899
IRIDIUM 69              
1 25319U 98026A   24123.86242281  .00000814  00000+0  25276-3 0  9997
2 25319  86.3949 268.5234 0000893   2.1482 357.9720 14.39937964364234
IRIDIUM 71              
1 25320U 98026B   24123.45551021  .00000790  00000+0  24358-3 0  9992
2 25320  86.3953 263.4622 0002963  47.2560 312.8888 14.40257209364451
IRIDIUM 73              
1 25344U 98032C   24124.53043663  .00000779  00000+0  19419-3 0  9992
2 25344  86.4469 220.5074 0001698  87.8686 272.2713 14.50477549371454
IRIDIUM 82              
1 25467U 98051A   24124.53075625  .00010306  00000+0  53210-3 0  9996
2 25467  86.3703 306.9505 0130823  25.7460 335.0210 15.08916789361752
IRIDIUM 2               
1 25527U 98066A   24124.54561080  .00103183  00000+0  78777-3 0  9996
2 25527  85.5058 332.2761 0004074 126.2301 233.9346 15.71866112400381
